KUIPER-00197            
1 67769U 26030F   26067.90614325  .00046462  00000+0  12937-2 0  9992
2 67769  51.8833 222.8251 0001272  66.3813 293.7307 15.36345100  4975
KUIPER-00198            
1 67770U 26030G   26067.91178273  .00031589  00000+0  89316-3 0  9992
2 67770  51.8807 222.8572 0003380  43.5847 316.5406 15.36046297  4979
KUIPER-00199            
1 67771U 26030H   26067.87227042  .00039385  00000+0  11690-2 0  9998
2 67771  51.8815 223.3332 0010811  58.3200 301.8839 15.34365504  4962
KUIPER-00200            
1 67772U 26030J   26067.89627759  .00041721  00000+0  11362-2 0  9993
2 67772  51.8816 222.7579 0001001 254.9733 105.1143 15.37082715  4973
KUIPER-00203            
1 67773U 26030K   26067.91668981 -.01775423  00000+0 -10258+0 0  9995
2 67773  51.8858 223.7272 0011065  60.4955 210.6668 15.15012741  3531
KUIPER-00205            
1 67774U 26030L   26067.90687035  .00042613  00000+0  11857-2 0  9990
2 67774  51.8809 222.8255 0003101  19.4810 340.6294 15.36403196  4974
KUIPER-00208            
1 67775U 26030M   26067.88963201 -.00000582  00000+0 -63796-5 0  9993
2 67775  51.8850 223.4536 0015269  56.6053 303.6390 15.32262901  4968
KUIPER-00209            
1 67776U 26030N   26067.89944092  .00017137  00000+0  58641-3 0  9995
2 67776  51.8835 223.5128 0013066  63.7830 296.4495 15.30268164  4965
KUIPER-00213            
1 67777U 26030P   26067.95475523 -.00001299  00000+0 -28595-4 0  9991
2 67777  51.8818 223.1289 0015164  61.7897 298.4617 15.32652928  4979
KUIPER-00214            
1 67778U 26030Q   26067.89968049  .00053412  00000+0  14648-2 0  9999
2 67778  51.8849 222.7863 0000220 280.1466  79.9496 15.36755215  4977
KUIPER-00215            
1 67779U 26030R   26067.93557354  .00032452  00000+0  96325-3 0  9992
2 67779  51.8844 223.0191 0010509  57.3102 302.8896 15.34461393  4974
KUIPER-00218            
1 67780U 26030S   26067.92435826  .00028624  00000+0  83317-3 0  9995
2 67780  51.8830 222.9437 0006922  48.7732 311.3850 15.35172007  4976
