CCSDS_OMM_VERS = 2.0
CREATION_DATE  = 
ORIGINATOR     = 

OBJECT_NAME    = KUIPER-00197
OBJECT_ID      = 2026-030F
CENTER_NAME    = EARTH
REF_FRAME      = TEME
TIME_SYSTEM    = UTC
MEAN_ELEMENT_THEORY = SGP/SGP4

EPOCH          = 2026-03-08T21:44:50.776800
MEAN_MOTION    = 15.36345100
ECCENTRICITY   = .00012723
INCLINATION    = 51.8833
RA_OF_ASC_NODE = 222.8251
ARG_OF_PERICENTER = 66.3813
MEAN_ANOMALY   = 293.7307

EPHEMERIS_TYPE = 0
CLASSIFICATION_TYPE = U
NORAD_CAT_ID   = 67769
ELEMENT_SET_NO = 999
REV_AT_EPOCH   = 497
BSTAR          = .12937129E-2
MEAN_MOTION_DOT = .46462E-3
MEAN_MOTION_DDOT = 0

CCSDS_OMM_VERS = 2.0
CREATION_DATE  = 
ORIGINATOR     = 

OBJECT_NAME    = KUIPER-00198
OBJECT_ID      = 2026-030G
CENTER_NAME    = EARTH
REF_FRAME      = TEME
TIME_SYSTEM    = UTC
MEAN_ELEMENT_THEORY = SGP/SGP4

EPOCH          = 2026-03-08T21:52:58.027872
MEAN_MOTION    = 15.36046297
ECCENTRICITY   = .00033801
INCLINATION    = 51.8807
RA_OF_ASC_NODE = 222.8572
ARG_OF_PERICENTER = 43.5847
MEAN_ANOMALY   = 316.5406

EPHEMERIS_TYPE = 0
CLASSIFICATION_TYPE = U
NORAD_CAT_ID   = 67770
ELEMENT_SET_NO = 999
REV_AT_EPOCH   = 497
BSTAR          = .89315876E-3
MEAN_MOTION_DOT = .31589E-3
MEAN_MOTION_DDOT = 0

CCSDS_OMM_VERS = 2.0
CREATION_DATE  = 
ORIGINATOR     = 

OBJECT_NAME    = KUIPER-00199
OBJECT_ID      = 2026-030H
CENTER_NAME    = EARTH
REF_FRAME      = TEME
TIME_SYSTEM    = UTC
MEAN_ELEMENT_THEORY = SGP/SGP4

EPOCH          = 2026-03-08T20:56:04.164288
MEAN_MOTION    = 15.34365504
ECCENTRICITY   = .00108112
INCLINATION    = 51.8815
RA_OF_ASC_NODE = 223.3332
ARG_OF_PERICENTER = 58.3200
MEAN_ANOMALY   = 301.8839

EPHEMERIS_TYPE = 0
CLASSIFICATION_TYPE = U
NORAD_CAT_ID   = 67771
ELEMENT_SET_NO = 999
REV_AT_EPOCH   = 496
BSTAR          = .1168983E-2
MEAN_MOTION_DOT = .39385E-3
MEAN_MOTION_DDOT = 0

CCSDS_OMM_VERS = 2.0
CREATION_DATE  = 
ORIGINATOR     = 

OBJECT_NAME    = KUIPER-00200
OBJECT_ID      = 2026-030J
CENTER_NAME    = EARTH
REF_FRAME      = TEME
TIME_SYSTEM    = UTC
MEAN_ELEMENT_THEORY = SGP/SGP4

EPOCH          = 2026-03-08T21:30:38.383776
MEAN_MOTION    = 15.37082715
ECCENTRICITY   = .00010012
INCLINATION    = 51.8816
RA_OF_ASC_NODE = 222.7579
ARG_OF_PERICENTER = 254.9733
MEAN_ANOMALY   = 105.1143

EPHEMERIS_TYPE = 0
CLASSIFICATION_TYPE = U
NORAD_CAT_ID   = 67772
ELEMENT_SET_NO = 999
REV_AT_EPOCH   = 497
BSTAR          = .11362486E-2
MEAN_MOTION_DOT = .41721E-3
MEAN_MOTION_DDOT = 0

CCSDS_OMM_VERS = 2.0
CREATION_DATE  = 
ORIGINATOR     = 

OBJECT_NAME    = KUIPER-00203
OBJECT_ID      = 2026-030K
CENTER_NAME    = EARTH
REF_FRAME      = TEME
TIME_SYSTEM    = UTC
MEAN_ELEMENT_THEORY = SGP/SGP4

EPOCH          = 2026-03-08T22:00:01.999584
MEAN_MOTION    = 15.15012741
ECCENTRICITY   = .00110657
INCLINATION    = 51.8858
RA_OF_ASC_NODE = 223.7272
ARG_OF_PERICENTER = 60.4955
MEAN_ANOMALY   = 210.6668

EPHEMERIS_TYPE = 0
CLASSIFICATION_TYPE = U
NORAD_CAT_ID   = 67773
ELEMENT_SET_NO = 999
REV_AT_EPOCH   = 353
BSTAR          = -.10257655E+0
MEAN_MOTION_DOT = -.1775423E-1
MEAN_MOTION_DDOT = 0

CCSDS_OMM_VERS = 2.0
CREATION_DATE  = 
ORIGINATOR     = 

OBJECT_NAME    = KUIPER-00205
OBJECT_ID      = 2026-030L
CENTER_NAME    = EARTH
REF_FRAME      = TEME
TIME_SYSTEM    = UTC
MEAN_ELEMENT_THEORY = SGP/SGP4

EPOCH          = 2026-03-08T21:45:53.598240
MEAN_MOTION    = 15.36403196
ECCENTRICITY   = .0003101
INCLINATION    = 51.8809
RA_OF_ASC_NODE = 222.8255
ARG_OF_PERICENTER = 19.4810
MEAN_ANOMALY   = 340.6294

EPHEMERIS_TYPE = 0
CLASSIFICATION_TYPE = U
NORAD_CAT_ID   = 67774
ELEMENT_SET_NO = 999
REV_AT_EPOCH   = 497
BSTAR          = .11857119E-2
MEAN_MOTION_DOT = .42613E-3
MEAN_MOTION_DDOT = 0

CCSDS_OMM_VERS = 2.0
CREATION_DATE  = 
ORIGINATOR     = 

OBJECT_NAME    = KUIPER-00208
OBJECT_ID      = 2026-030M
CENTER_NAME    = EARTH
REF_FRAME      = TEME
TIME_SYSTEM    = UTC
MEAN_ELEMENT_THEORY = SGP/SGP4

EPOCH          = 2026-03-08T21:21:04.205664
MEAN_MOTION    = 15.32262901
ECCENTRICITY   = .00152699
INCLINATION    = 51.8850
RA_OF_ASC_NODE = 223.4536
ARG_OF_PERICENTER = 56.6053
MEAN_ANOMALY   = 303.6390

EPHEMERIS_TYPE = 0
CLASSIFICATION_TYPE = U
NORAD_CAT_ID   = 67775
ELEMENT_SET_NO = 999
REV_AT_EPOCH   = 496
BSTAR          = -.6379622E-5
MEAN_MOTION_DOT = -.582E-5
MEAN_MOTION_DDOT = 0

CCSDS_OMM_VERS = 2.0
CREATION_DATE  = 
ORIGINATOR     = 

OBJECT_NAME    = KUIPER-00209
OBJECT_ID      = 2026-030N
CENTER_NAME    = EARTH
REF_FRAME      = TEME
TIME_SYSTEM    = UTC
MEAN_ELEMENT_THEORY = SGP/SGP4

EPOCH          = 2026-03-08T21:35:11.695488
MEAN_MOTION    = 15.30268164
ECCENTRICITY   = .00130665
INCLINATION    = 51.8835
RA_OF_ASC_NODE = 223.5128
ARG_OF_PERICENTER = 63.7830
MEAN_ANOMALY   = 296.4495

EPHEMERIS_TYPE = 0
CLASSIFICATION_TYPE = U
NORAD_CAT_ID   = 67776
ELEMENT_SET_NO = 999
REV_AT_EPOCH   = 496
BSTAR          = .58641217E-3
MEAN_MOTION_DOT = .17137E-3
MEAN_MOTION_DDOT = 0

CCSDS_OMM_VERS = 2.0
CREATION_DATE  = 
ORIGINATOR     = 

OBJECT_NAME    = KUIPER-00213
OBJECT_ID      = 2026-030P
CENTER_NAME    = EARTH
REF_FRAME      = TEME
TIME_SYSTEM    = UTC
MEAN_ELEMENT_THEORY = SGP/SGP4

EPOCH          = 2026-03-08T22:54:50.851872
MEAN_MOTION    = 15.32652928
ECCENTRICITY   = .00151647
INCLINATION    = 51.8818
RA_OF_ASC_NODE = 223.1289
ARG_OF_PERICENTER = 61.7897
MEAN_ANOMALY   = 298.4617

EPHEMERIS_TYPE = 0
CLASSIFICATION_TYPE = U
NORAD_CAT_ID   = 67777
ELEMENT_SET_NO = 999
REV_AT_EPOCH   = 497
BSTAR          = -.28594798E-4
MEAN_MOTION_DOT = -.1299E-4
MEAN_MOTION_DDOT = 0

CCSDS_OMM_VERS = 2.0
CREATION_DATE  = 
ORIGINATOR     = 

OBJECT_NAME    = KUIPER-00214
OBJECT_ID      = 2026-030Q
CENTER_NAME    = EARTH
REF_FRAME      = TEME
TIME_SYSTEM    = UTC
MEAN_ELEMENT_THEORY = SGP/SGP4

EPOCH          = 2026-03-08T21:35:32.394336
MEAN_MOTION    = 15.36755215
ECCENTRICITY   = .00002206
INCLINATION    = 51.8849
RA_OF_ASC_NODE = 222.7863
ARG_OF_PERICENTER = 280.1466
MEAN_ANOMALY   = 79.9496

EPHEMERIS_TYPE = 0
CLASSIFICATION_TYPE = U
NORAD_CAT_ID   = 67778
ELEMENT_SET_NO = 999
REV_AT_EPOCH   = 497
BSTAR          = .14648318E-2
MEAN_MOTION_DOT = .53412E-3
MEAN_MOTION_DDOT = 0

CCSDS_OMM_VERS = 2.0
CREATION_DATE  = 
ORIGINATOR     = 

OBJECT_NAME    = KUIPER-00215
OBJECT_ID      = 2026-030R
CENTER_NAME    = EARTH
REF_FRAME      = TEME
TIME_SYSTEM    = UTC
MEAN_ELEMENT_THEORY = SGP/SGP4

EPOCH          = 2026-03-08T22:27:13.553856
MEAN_MOTION    = 15.34461393
ECCENTRICITY   = .00105099
INCLINATION    = 51.8844
RA_OF_ASC_NODE = 223.0191
ARG_OF_PERICENTER = 57.3102
MEAN_ANOMALY   = 302.8896

EPHEMERIS_TYPE = 0
CLASSIFICATION_TYPE = U
NORAD_CAT_ID   = 67779
ELEMENT_SET_NO = 999
REV_AT_EPOCH   = 497
BSTAR          = .9632546E-3
MEAN_MOTION_DOT = .32452E-3
MEAN_MOTION_DDOT = 0

CCSDS_OMM_VERS = 2.0
CREATION_DATE  = 
ORIGINATOR     = 

OBJECT_NAME    = KUIPER-00218
OBJECT_ID      = 2026-030S
CENTER_NAME    = EARTH
REF_FRAME      = TEME
TIME_SYSTEM    = UTC
MEAN_ELEMENT_THEORY = SGP/SGP4

EPOCH          = 2026-03-08T22:11:04.553664
MEAN_MOTION    = 15.35172007
ECCENTRICITY   = .00069226
INCLINATION    = 51.8830
RA_OF_ASC_NODE = 222.9437
ARG_OF_PERICENTER = 48.7732
MEAN_ANOMALY   = 311.3850

EPHEMERIS_TYPE = 0
CLASSIFICATION_TYPE = U
NORAD_CAT_ID   = 67780
ELEMENT_SET_NO = 999
REV_AT_EPOCH   = 497
BSTAR          = .83316814E-3
MEAN_MOTION_DOT = .28624E-3
MEAN_MOTION_DDOT = 0

